{
  "type": "FeatureCollection",
  "features": [
    {
      "type": "Feature",
      "properties": {
        "norad_id": 29975,
        "name": "FENGYUN 1C DEB",
        "group": "fengyun-1c-debris",
        "lat": 46.40370822541424,
        "lon": -133.12930008083407,
        "alt_km": 962.2168703149746,
        "timestamp": "2025-12-21T16:47:55.011137+00:00",
        "meta_object_name": "FENGYUN 1C DEB",
        "meta_object_id": "1999-025KZ",
        "meta_epoch": "2025-12-21T09:22:21.855072",
        "meta_mean_motion": 13.98027516,
        "meta_eccentricity": 0.0113151,
        "meta_inclination": 99.3379,
        "meta_ra_of_asc_node": 36.6051,
        "meta_arg_of_pericenter": 350.2387,
        "meta_mean_anomaly": 25.2959,
        "meta_ephemeris_type": 0,
        "meta_classification_type": "U",
        "meta_norad_cat_id": 29975,
        "meta_element_set_no": 999,
        "meta_rev_at_epoch": 96558,
        "meta_bstar": 0.0001003,
        "meta_mean_motion_dot": 1.04e-06,
        "meta_mean_motion_ddot": 0,
        "tle_line1": "1 29975U 99025KZ  25355.39053073  .00000104  00000+0  10030-3 0  9998",
        "tle_line2": "2 29975  99.3379  36.6051 0113151 350.2387  25.2959 13.98027516965582"
      },
      "geometry": {
        "type": "Point",
        "coordinates": [
          -133.12930008083407,
          46.40370822541424
        ]
      }
    },
    {
      "type": "Feature",
      "properties": {
        "norad_id": 29976,
        "name": "FENGYUN 1C DEB",
        "group": "fengyun-1c-debris",
        "lat": -45.379601939525344,
        "lon": 1.9236949601176587,
        "alt_km": 933.4633367981978,
        "timestamp": "2025-12-21T16:47:55.011147+00:00",
        "meta_object_name": "FENGYUN 1C DEB",
        "meta_object_id": "1999-025LA",
        "meta_epoch": "2025-12-20T22:26:15.770400",
        "meta_mean_motion": 13.98119452,
        "meta_eccentricity": 0.0267453,
        "meta_inclination": 98.9187,
        "meta_ra_of_asc_node": 352.0233,
        "meta_arg_of_pericenter": 216.7731,
        "meta_mean_anomaly": 205.6875,
        "meta_ephemeris_type": 0,
        "meta_classification_type": "U",
        "meta_norad_cat_id": 29976,
        "meta_element_set_no": 999,
        "meta_rev_at_epoch": 96451,
        "meta_bstar": 0.00039759,
        "meta_mean_motion_dot": 7.23e-06,
        "meta_mean_motion_ddot": 0,
        "tle_line1": "1 29976U 99025LA  25354.93490475  .00000723  00000+0  39759-3 0  9995",
        "tle_line2": "2 29976  98.9187 352.0233 0267453 216.7731 205.6875 13.98119452964510"
      },
      "geometry": {
        "type": "Point",
        "coordinates": [
          1.9236949601176587,
          -45.379601939525344
        ]
      }
    },
    {
      "type": "Feature",
      "properties": {
        "norad_id": 29977,
        "name": "FENGYUN 1C DEB",
        "group": "fengyun-1c-debris",
        "lat": 71.82116068367112,
        "lon": 63.818639271262306,
        "alt_km": 922.2467794921067,
        "timestamp": "2025-12-21T16:47:55.011157+00:00",
        "meta_object_name": "FENGYUN 1C DEB",
        "meta_object_id": "1999-025LB",
        "meta_epoch": "2025-12-15T02:05:24.079200",
        "meta_mean_motion": 14.0509794,
        "meta_eccentricity": 0.0128352,
        "meta_inclination": 98.3968,
        "meta_ra_of_asc_node": 210.9629,
        "meta_arg_of_pericenter": 250.2626,
        "meta_mean_anomaly": 265.3537,
        "meta_ephemeris_type": 0,
        "meta_classification_type": "U",
        "meta_norad_cat_id": 29977,
        "meta_element_set_no": 999,
        "meta_rev_at_epoch": 96393,
        "meta_bstar": 0.001211704,
        "meta_mean_motion_dot": 2.064e-05,
        "meta_mean_motion_ddot": 0,
        "tle_line1": "1 29977U 99025LB  25349.08708425  .00002064  00000+0  12117-2 0  9991",
        "tle_line2": "2 29977  98.3968 210.9629 0128352 250.2626 265.3537 14.05097940963932"
      },
      "geometry": {
        "type": "Point",
        "coordinates": [
          63.818639271262306,
          71.82116068367112
        ]
      }
    },
    {
      "type": "Feature",
      "properties": {
        "norad_id": 29978,
        "name": "FENGYUN 1C DEB",
        "group": "fengyun-1c-debris",
        "lat": -72.15274705599138,
        "lon": -163.706942567162,
        "alt_km": 953.324100031964,
        "timestamp": "2025-12-21T16:47:55.011167+00:00",
        "meta_object_name": "FENGYUN 1C DEB",
        "meta_object_id": "1999-025LC",
        "meta_epoch": "2025-12-21T08:59:16.153728",
        "meta_mean_motion": 13.95910336,
        "meta_eccentricity": 0.0076492,
        "meta_inclination": 99.06,
        "meta_ra_of_asc_node": 45.6796,
        "meta_arg_of_pericenter": 28.8163,
        "meta_mean_anomaly": 31.7671,
        "meta_ephemeris_type": 0,
        "meta_classification_type": "U",
        "meta_norad_cat_id": 29978,
        "meta_element_set_no": 999,
        "meta_rev_at_epoch": 96437,
        "meta_bstar": 0.00024757,
        "meta_mean_motion_dot": 3.03e-06,
        "meta_mean_motion_ddot": 0,
        "tle_line1": "1 29978U 99025LC  25355.37449252  .00000303  00000+0  24757-3 0  9999",
        "tle_line2": "2 29978  99.0600  45.6796 0076492  28.8163  31.7671 13.95910336964378"
      },
      "geometry": {
        "type": "Point",
        "coordinates": [
          -163.706942567162,
          -72.15274705599138
        ]
      }
    },
    {
      "type": "Feature",
      "properties": {
        "norad_id": 29979,
        "name": "FENGYUN 1C DEB",
        "group": "fengyun-1c-debris",
        "lat": 20.543579213260088,
        "lon": -158.32716008401107,
        "alt_km": 733.2775363255305,
        "timestamp": "2025-12-21T16:47:55.011177+00:00",
        "meta_object_name": "FENGYUN 1C DEB",
        "meta_object_id": "1999-025LD",
        "meta_epoch": "2025-12-21T01:02:10.236192",
        "meta_mean_motion": 14.25979676,
        "meta_eccentricity": 0.01079554,
        "meta_inclination": 98.3696,
        "meta_ra_of_asc_node": 17.8827,
        "meta_arg_of_pericenter": 138.6869,
        "meta_mean_anomaly": 250.3549,
        "meta_ephemeris_type": 0,
        "meta_classification_type": "U",
        "meta_norad_cat_id": 29979,
        "meta_element_set_no": 999,
        "meta_rev_at_epoch": 98192,
        "meta_bstar": 0.00029515464,
        "meta_mean_motion_dot": 7.08e-06,
        "meta_mean_motion_ddot": 0,
        "tle_line1": "1 29979U 99025LD  25355.04317403  .00000708  00000+0  29515-3 0  9992",
        "tle_line2": "2 29979  98.3696  17.8827 0107955 138.6869 250.3549 14.25979676981923"
      },
      "geometry": {
        "type": "Point",
        "coordinates": [
          -158.32716008401107,
          20.543579213260088
        ]
      }
    },
    {
      "type": "Feature",
      "properties": {
        "norad_id": 29980,
        "name": "FENGYUN 1C DEB",
        "group": "fengyun-1c-debris",
        "lat": 5.484184557111067,
        "lon": -14.806839049520113,
        "alt_km": 831.4934224875415,
        "timestamp": "2025-12-21T16:47:55.011187+00:00",
        "meta_object_name": "FENGYUN 1C DEB",
        "meta_object_id": "1999-025LE",
        "meta_epoch": "2025-12-21T11:06:32.031072",
        "meta_mean_motion": 14.06322223,
        "meta_eccentricity": 0.0087093,
        "meta_inclination": 98.5517,
        "meta_ra_of_asc_node": 164.1414,
        "meta_arg_of_pericenter": 222.9004,
        "meta_mean_anomaly": 192.6095,
        "meta_ephemeris_type": 0,
        "meta_classification_type": "U",
        "meta_norad_cat_id": 29980,
        "meta_element_set_no": 999,
        "meta_rev_at_epoch": 97115,
        "meta_bstar": 0.00010098,
        "meta_mean_motion_dot": 1.31e-06,
        "meta_mean_motion_ddot": 0,
        "tle_line1": "1 29980U 99025LE  25355.46287073  .00000131  00000+0  10098-3 0  9995",
        "tle_line2": "2 29980  98.5517 164.1414 0087093 222.9004 192.6095 14.06322223971152"
      },
      "geometry": {
        "type": "Point",
        "coordinates": [
          -14.806839049520113,
          5.484184557111067
        ]
      }
    },
    {
      "type": "Feature",
      "properties": {
        "norad_id": 29982,
        "name": "FENGYUN 1C DEB",
        "group": "fengyun-1c-debris",
        "lat": 14.131753054553126,
        "lon": 175.8893746546771,
        "alt_km": 705.1647630019161,
        "timestamp": "2025-12-21T16:47:55.011197+00:00",
        "meta_object_name": "FENGYUN 1C DEB",
        "meta_object_id": "1999-025LG",
        "meta_epoch": "2025-12-21T12:05:30.791904",
        "meta_mean_motion": 14.66945884,
        "meta_eccentricity": 0.0121676,
        "meta_inclination": 99.401,
        "meta_ra_of_asc_node": 178.0554,
        "meta_arg_of_pericenter": 261.4892,
        "meta_mean_anomaly": 156.5885,
        "meta_ephemeris_type": 0,
        "meta_classification_type": "U",
        "meta_norad_cat_id": 29982,
        "meta_element_set_no": 999,
        "meta_rev_at_epoch": 412,
        "meta_bstar": 0.00058168,
        "meta_mean_motion_dot": 3.566e-05,
        "meta_mean_motion_ddot": 0,
        "tle_line1": "1 29982U 99025LG  25355.50382861  .00003566  00000+0  58168-3 0  9998",
        "tle_line2": "2 29982  99.4010 178.0554 0121676 261.4892 156.5885 14.66945884  4120"
      },
      "geometry": {
        "type": "Point",
        "coordinates": [
          175.8893746546771,
          14.131753054553126
        ]
      }
    }
  ]
}